ONEWEB-0176             
1 48210U 21031A   26197.78881107 -.00000076  00000+0 -23950-3 0  9993
2 48210  87.8969 283.8015 0002148 101.0601 259.0770 13.14502474252207
ONEWEB-0184             
1 48211U 21031B   26198.21856294  .00000178  00000+0  44585-3 0  9990
2 48211  87.8970 283.7188 0002671 112.4647 247.6766 13.14502614252234
ONEWEB-0179             
1 48212U 21031C   26198.20859752  .00000198  00000+0  57521-4 0  9999
2 48212  87.8989 279.7482 0221905 158.8935 202.1597 14.25549694253325
ONEWEB-0180             
1 48213U 21031D   26198.22173576  .00000264  00000+0  67651-3 0  9993
2 48213  87.8978 283.7146 0002467  98.2527 261.8882 13.14503392252162
ONEWEB-0218             
1 48214U 21031E   26197.78722221  .00000000  00000+0 -34807-4 0  9998
2 48214  87.8981 283.8002 0002846 108.0855 252.0585 13.14503092252264
ONEWEB-0209             
1 48215U 21031F   26198.23283712  .00000254  00000+0  65001-3 0  9996
2 48215  87.8969 283.7259 0002235  95.7120 264.4265 13.14503742252324
ONEWEB-0198             
1 48216U 21031G   26197.76040917  .00000247  00000+0  63089-3 0  9998
2 48216  87.8959 283.8170 0002482  99.3351 260.8060 13.14503466252378
ONEWEB-0189             
1 48217U 21031H   26197.77295799  .00000194  00000+0  48999-3 0  9994
2 48217  87.8969 283.8038 0002397 100.3747 259.7653 13.14502566252117
ONEWEB-0196             
1 48218U 21031J   26198.20746113  .00000041  00000+0  75520-4 0  9997
2 48218  87.8965 283.7259 0002205  98.1616 261.9764 13.14502755252179
ONEWEB-0183             
1 48219U 21031K   26198.18208445 -.00000099  00000+0 -30207-3 0  9993
2 48219  87.8967 283.7285 0001955  93.0310 267.1044 13.14502600252265
ONEWEB-0185             
1 48220U 21031L   26198.20823372  .00000074  00000+0  16604-3 0  9996
2 48220  87.8975 283.7193 0002176  88.1196 272.0183 13.14504251252192
ONEWEB-0187             
1 48221U 21031M   26198.18828468 -.00000202  00000+0 -58052-3 0  9993
2 48221  87.8969 283.7363 0002187  95.6184 264.5195 13.14502822252200
ONEWEB-0192             
1 48222U 21031N   26197.77771264  .00000202  00000+0  50962-3 0  9999
2 48222  87.8968 283.8082 0002127 100.1306 260.0064 13.14502876252060
ONEWEB-0219             
1 48223U 21031P   26198.21378818  .00000135  00000+0  33085-3 0  9990
2 48223  87.8973 283.7147 0002243  93.9910 266.1476 13.14504349252327
ONEWEB-0202             
1 48224U 21031Q   26198.19477706 -.00000156  00000+0 -45410-3 0  9994
2 48224  87.8969 283.7310 0002710 105.8799 254.2630 13.14503120252306
ONEWEB-0204             
1 48225U 21031R   26197.77215694  .00000176  00000+0  44148-3 0  9991
2 48225  87.8970 283.8093 0001774  89.4799 270.6534 13.14502710252145
