{"fetched_at":"2026-07-17T17:37:53.421Z","source":"https://celestrak.org/NORAD/elements/gp.php?GROUP=oneweb&FORMAT=JSON","constellation":"oneweb","records":[{"OBJECT_NAME":"ONEWEB-0176","OBJECT_ID":"2021-031A","EPOCH":"2026-07-16T18:55:53.276448","CLASSIFICATION_TYPE":"U","MEAN_MOTION":13.14502474,"ECCENTRICITY":0.00021485,"INCLINATION":87.8969,"RA_OF_ASC_NODE":283.8015,"ARG_OF_PERICENTER":101.0601,"MEAN_ANOMALY":259.077,"EPHEMERIS_TYPE":0,"NORAD_CAT_ID":48210,"ELEMENT_SET_NO":999,"REV_AT_EPOCH":25220,"BSTAR":-0.0002395006,"MEAN_MOTION_DOT":-7.6e-7,"MEAN_MOTION_DDOT":0},{"OBJECT_NAME":"ONEWEB-0184","OBJECT_ID":"2021-031B","EPOCH":"2026-07-17T05:14:43.838016","CLASSIFICATION_TYPE":"U","MEAN_MOTION":13.14502614,"ECCENTRICITY":0.00026714,"INCLINATION":87.897,"RA_OF_ASC_NODE":283.7188,"ARG_OF_PERICENTER":112.4647,"MEAN_ANOMALY":247.6766,"EPHEMERIS_TYPE":0,"NORAD_CAT_ID":48211,"ELEMENT_SET_NO":999,"REV_AT_EPOCH":25223,"BSTAR":0.00044584697,"MEAN_MOTION_DOT":0.00000178,"MEAN_MOTION_DDOT":0},{"OBJECT_NAME":"ONEWEB-0179","OBJECT_ID":"2021-031C","EPOCH":"2026-07-17T05:00:22.825728","CLASSIFICATION_TYPE":"U","MEAN_MOTION":14.25549694,"ECCENTRICITY":0.02219054,"INCLINATION":87.8989,"RA_OF_ASC_NODE":279.7482,"ARG_OF_PERICENTER":158.8935,"MEAN_ANOMALY":202.1597,"EPHEMERIS_TYPE":0,"NORAD_CAT_ID":48212,"ELEMENT_SET_NO":999,"REV_AT_EPOCH":25332,"BSTAR":0.000057521404,"MEAN_MOTION_DOT":0.00000198,"MEAN_MOTION_DDOT":0},{"OBJECT_NAME":"ONEWEB-0180","OBJECT_ID":"2021-031D","EPOCH":"2026-07-17T05:19:17.969664","CLASSIFICATION_TYPE":"U","MEAN_MOTION":13.14503392,"ECCENTRICITY":0.00024673,"INCLINATION":87.8978,"RA_OF_ASC_NODE":283.7146,"ARG_OF_PERICENTER":98.2527,"MEAN_ANOMALY":261.8882,"EPHEMERIS_TYPE":0,"NORAD_CAT_ID":48213,"ELEMENT_SET_NO":999,"REV_AT_EPOCH":25216,"BSTAR":0.00067651364,"MEAN_MOTION_DOT":0.00000264,"MEAN_MOTION_DDOT":0},{"OBJECT_NAME":"ONEWEB-0218","OBJECT_ID":"2021-031E","EPOCH":"2026-07-16T18:53:35.998944","CLASSIFICATION_TYPE":"U","MEAN_MOTION":13.14503092,"ECCENTRICITY":0.00028467,"INCLINATION":87.8981,"RA_OF_ASC_NODE":283.8002,"ARG_OF_PERICENTER":108.0855,"MEAN_ANOMALY":252.0585,"EPHEMERIS_TYPE":0,"NORAD_CAT_ID":48214,"ELEMENT_SET_NO":999,"REV_AT_EPOCH":25226,"BSTAR":-0.000034807174,"MEAN_MOTION_DOT":0,"MEAN_MOTION_DDOT":0},{"OBJECT_NAME":"ONEWEB-0209","OBJECT_ID":"2021-031F","EPOCH":"2026-07-17T05:35:17.127168","CLASSIFICATION_TYPE":"U","MEAN_MOTION":13.14503742,"ECCENTRICITY":0.00022352,"INCLINATION":87.8969,"RA_OF_ASC_NODE":283.7259,"ARG_OF_PERICENTER":95.712,"MEAN_ANOMALY":264.4265,"EPHEMERIS_TYPE":0,"NORAD_CAT_ID":48215,"ELEMENT_SET_NO":999,"REV_AT_EPOCH":25232,"BSTAR":0.00065001277,"MEAN_MOTION_DOT":0.00000254,"MEAN_MOTION_DDOT":0},{"OBJECT_NAME":"ONEWEB-0198","OBJECT_ID":"2021-031G","EPOCH":"2026-07-16T18:14:59.352288","CLASSIFICATION_TYPE":"U","MEAN_MOTION":13.14503466,"ECCENTRICITY":0.00024827,"INCLINATION":87.8959,"RA_OF_ASC_NODE":283.817,"ARG_OF_PERICENTER":99.3351,"MEAN_ANOMALY":260.806,"EPHEMERIS_TYPE":0,"NORAD_CAT_ID":48216,"ELEMENT_SET_NO":999,"REV_AT_EPOCH":25237,"BSTAR":0.00063089426,"MEAN_MOTION_DOT":0.00000247,"MEAN_MOTION_DDOT":0},{"OBJECT_NAME":"ONEWEB-0189","OBJECT_ID":"2021-031H","EPOCH":"2026-07-16T18:33:03.570336","CLASSIFICATION_TYPE":"U","MEAN_MOTION":13.14502566,"ECCENTRICITY":0.00023976,"INCLINATION":87.8969,"RA_OF_ASC_NODE":283.8038,"ARG_OF_PERICENTER":100.3747,"MEAN_ANOMALY":259.7653,"EPHEMERIS_TYPE":0,"NORAD_CAT_ID":48217,"ELEMENT_SET_NO":999,"REV_AT_EPOCH":25211,"BSTAR":0.00048998789,"MEAN_MOTION_DOT":0.00000194,"MEAN_MOTION_DDOT":0},{"OBJECT_NAME":"ONEWEB-0196","OBJECT_ID":"2021-031J","EPOCH":"2026-07-17T04:58:44.641632","CLASSIFICATION_TYPE":"U","MEAN_MOTION":13.14502755,"ECCENTRICITY":0.00022054,"INCLINATION":87.8965,"RA_OF_ASC_NODE":283.7259,"ARG_OF_PERICENTER":98.1616,"MEAN_ANOMALY":261.9764,"EPHEMERIS_TYPE":0,"NORAD_CAT_ID":48218,"ELEMENT_SET_NO":999,"REV_AT_EPOCH":25217,"BSTAR":0.000075519798,"MEAN_MOTION_DOT":4.1e-7,"MEAN_MOTION_DDOT":0},{"OBJECT_NAME":"ONEWEB-0183","OBJECT_ID":"2021-031K","EPOCH":"2026-07-17T04:22:12.096480","CLASSIFICATION_TYPE":"U","MEAN_MOTION":13.145026,"ECCENTRICITY":0.0001955,"INCLINATION":87.8967,"RA_OF_ASC_NODE":283.7285,"ARG_OF_PERICENTER":93.031,"MEAN_ANOMALY":267.1044,"EPHEMERIS_TYPE":0,"NORAD_CAT_ID":48219,"ELEMENT_SET_NO":999,"REV_AT_EPOCH":25226,"BSTAR":-0.00030206645,"MEAN_MOTION_DOT":-9.9e-7,"MEAN_MOTION_DDOT":0},{"OBJECT_NAME":"ONEWEB-0185","OBJECT_ID":"2021-031L","EPOCH":"2026-07-17T04:59:51.393408","CLASSIFICATION_TYPE":"U","MEAN_MOTION":13.14504251,"ECCENTRICITY":0.00021761,"INCLINATION":87.8975,"RA_OF_ASC_NODE":283.7193,"ARG_OF_PERICENTER":88.1196,"MEAN_ANOMALY":272.0183,"EPHEMERIS_TYPE":0,"NORAD_CAT_ID":48220,"ELEMENT_SET_NO":999,"REV_AT_EPOCH":25219,"BSTAR":0.0001660389,"MEAN_MOTION_DOT":7.4e-7,"MEAN_MOTION_DDOT":0},{"OBJECT_NAME":"ONEWEB-0187","OBJECT_ID":"2021-031M","EPOCH":"2026-07-17T04:31:07.796352","CLASSIFICATION_TYPE":"U","MEAN_MOTION":13.14502822,"ECCENTRICITY":0.00021878,"INCLINATION":87.8969,"RA_OF_ASC_NODE":283.7363,"ARG_OF_PERICENTER":95.6184,"MEAN_ANOMALY":264.5195,"EPHEMERIS_TYPE":0,"NORAD_CAT_ID":48221,"ELEMENT_SET_NO":999,"REV_AT_EPOCH":25220,"BSTAR":-0.0005805197,"MEAN_MOTION_DOT":-0.00000202,"MEAN_MOTION_DDOT":0},{"OBJECT_NAME":"ONEWEB-0192","OBJECT_ID":"2021-031N","EPOCH":"2026-07-16T18:39:54.372096","CLASSIFICATION_TYPE":"U","MEAN_MOTION":13.14502876,"ECCENTRICITY":0.00021279,"INCLINATION":87.8968,"RA_OF_ASC_NODE":283.8082,"ARG_OF_PERICENTER":100.1306,"MEAN_ANOMALY":260.0064,"EPHEMERIS_TYPE":0,"NORAD_CAT_ID":48222,"ELEMENT_SET_NO":999,"REV_AT_EPOCH":25206,"BSTAR":0.00050961643,"MEAN_MOTION_DOT":0.00000202,"MEAN_MOTION_DDOT":0},{"OBJECT_NAME":"ONEWEB-0219","OBJECT_ID":"2021-031P","EPOCH":"2026-07-17T05:07:51.298752","CLASSIFICATION_TYPE":"U","MEAN_MOTION":13.14504349,"ECCENTRICITY":0.00022437,"INCLINATION":87.8973,"RA_OF_ASC_NODE":283.7147,"ARG_OF_PERICENTER":93.991,"MEAN_ANOMALY":266.1476,"EPHEMERIS_TYPE":0,"NORAD_CAT_ID":48223,"ELEMENT_SET_NO":999,"REV_AT_EPOCH":25232,"BSTAR":0.00033084617,"MEAN_MOTION_DOT":0.00000135,"MEAN_MOTION_DDOT":0},{"OBJECT_NAME":"ONEWEB-0202","OBJECT_ID":"2021-031Q","EPOCH":"2026-07-17T04:40:28.737984","CLASSIFICATION_TYPE":"U","MEAN_MOTION":13.1450312,"ECCENTRICITY":0.00027109,"INCLINATION":87.8969,"RA_OF_ASC_NODE":283.731,"ARG_OF_PERICENTER":105.8799,"MEAN_ANOMALY":254.263,"EPHEMERIS_TYPE":0,"NORAD_CAT_ID":48224,"ELEMENT_SET_NO":999,"REV_AT_EPOCH":25230,"BSTAR":-0.00045409645,"MEAN_MOTION_DOT":-0.00000156,"MEAN_MOTION_DDOT":0},{"OBJECT_NAME":"ONEWEB-0204","OBJECT_ID":"2021-031R","EPOCH":"2026-07-16T18:31:54.359616","CLASSIFICATION_TYPE":"U","MEAN_MOTION":13.1450271,"ECCENTRICITY":0.00017742,"INCLINATION":87.897,"RA_OF_ASC_NODE":283.8093,"ARG_OF_PERICENTER":89.4799,"MEAN_ANOMALY":270.6534,"EPHEMERIS_TYPE":0,"NORAD_CAT_ID":48225,"ELEMENT_SET_NO":999,"REV_AT_EPOCH":25214,"BSTAR":0.00044147789,"MEAN_MOTION_DOT":0.00000176,"MEAN_MOTION_DDOT":0}]}
